HULIANWANG DIGUI-129    
1 67237U 25311B   26061.45721908 -.00000071  00000+0  10755-3 0  9997
2 67237  50.0076 138.5142 0000936 290.8870  69.1905 13.36653522  9141
HULIANWANG DIGUI-130    
1 67238U 25311C   26061.72684534 -.00000064  00000+0  12257-3 0  9992
2 67238  50.0046 137.9149 0001025 276.3075  83.7683 13.35083039  9172
HULIANWANG DIGUI-131    
1 67239U 25311D   26062.10902118 -.00000062  00000+0  12648-3 0  9999
2 67239  50.0041 136.5978 0000464 272.2712  87.8109 13.34957059  9227
HULIANWANG DIGUI-132    
1 67240U 25311E   26062.16049956 -.00000066  00000+0  11880-3 0  9990
2 67240  50.0049 136.2140 0000364 291.6621  68.4215 13.35445825  9236
HULIANWANG DIGUI-133    
1 67241U 25311F   26061.77128593 -.00000062  00000+0  12494-3 0  9990
2 67241  50.0097 137.5221 0000558 259.1437 100.9375 13.35862255  9186
HULIANWANG DIGUI-134    
1 67242U 25311G   26061.77900081 -.00000065  00000+0  12035-3 0  9995
2 67242  50.0020 137.5174 0000369  87.0028 273.0889 13.35702804  9189
HULIANWANG DIGUI-135    
1 67243U 25311H   26062.16828098 -.00000061  00000+0  12897-3 0  9999
2 67243  50.0012 136.2268 0000822 249.9862 110.0924 13.35301438  9234
HULIANWANG DIGUI-136    
1 67244U 25311J   26061.76371512 -.00000067  00000+0  11564-3 0  9995
2 67244  50.0084 137.4741 0000636 287.2300  72.8505 13.36030172  9187
HULIANWANG DIGUI-137    
1 67435U 26007A   26061.99785043 -.00000029  00000+0  16968-3 0  9994
2 67435  50.0090 107.2612 0000542 151.3375 208.7534 13.44972275  6656
HULIANWANG DIGUI-138    
1 67436U 26007B   26061.93699902 -.00000033  00000+0  16457-3 0  9995
2 67436  50.0059 107.5964 0000901 164.5527 195.5380 13.44235057  6640
HULIANWANG DIGUI-139    
1 67437U 26007C   26061.63307645 -.00000017  00000+0  19178-3 0  9998
2 67437  50.0030 108.6361 0000388 119.4005 240.6913 13.44643664  6609
HULIANWANG DIGUI-140    
1 67438U 26007D   26062.16709309 -.00000020  00000+0  18677-3 0  9998
2 67438  50.0053 106.8095 0000140 150.8787 209.2100 13.44092178  6675
HULIANWANG DIGUI-141    
1 67439U 26007E   26061.99143217 -.00000029  00000+0  17024-3 0  9993
2 67439  50.0067 107.2173 0000334 337.2092  22.8772 13.45003901  6657
HULIANWANG DIGUI-142    
1 67440U 26007F   26062.13357209 -.00000109  00000+0  34503-4 0  9991
2 67440  50.0144 106.6629 0000382 203.8578 156.2283 13.45212159  6672
HULIANWANG DIGUI-143    
1 67441U 26007G   26061.68135595 -.00000032  00000+0  16393-3 0  9994
2 67441  50.0129 108.2521 0002061 211.3896 148.6860 13.45311137  6614
HULIANWANG DIGUI-144    
1 67442U 26007H   26062.19470622 -.00000040  00000+0  15076-3 0  9991
2 67442  50.0082 106.3130 0000496  31.8673 328.2236 13.45613432  6689
